0 SL-8 DEB
1 21724U 91009BZ  13281.87619041 -.00000029  00000-0 -13783-3 0  1435
2 21724 073.9799 201.7132 0206371 068.7670 359.9277 12.20245234981455
0 SL-8 DEB
1 21724U 91009BZ  13284.19047679 -.00000030  00000-0 -15102-3 0  1445
2 21724 073.9797 198.7951 0206446 065.4827 086.3196 12.20244887981733
0 SL-8 DEB
1 21724U 91009BZ  13286.47661122 -.00000018  00000-0 -39856-4 0  1453
2 21724 073.9796 195.9123 0206552 062.2459 049.0385 12.20244566982018
0 SL-8 DEB
1 21724U 91009BZ  13288.84410928 -.00000024  00000-0 -91283-4 0  1462
2 21724 073.9794 192.9269 0206644 058.8904 009.1780 12.20244583982309
0 SL-8 DEB
1 21724U 91009BZ  13291.15801060 -.00000030  00000-0 -14362-3 0  1471
2 21724 073.9791 190.0091 0206735 055.6131 093.8645 12.20244890982587
0 SL-8 DEB
1 21724U 91009BZ  13293.21139701 -.00000044  00000-0 -27058-3 0  1488
2 21724 073.9787 187.4199 0206793 052.7053 114.1446 12.20244972982831
0 SL-8 DEB
1 21724U 91009BZ  13295.41237422 -.00000038  00000-0 -21455-3 0  1490
2 21724 073.9783 184.6445 0206893 049.5964 062.7702 12.20244568983101
